[{"OBJECT_NAME":"STARLINK-2440","OBJECT_ID":"2021-027P","EPOCH":"2026-03-10T00:00:02.999808","MEAN_MOTION":15.26632507,"ECCENTRICITY":0.0001349,"INCLINATION":53.1427,"RA_OF_ASC_NODE":99.4722,"ARG_OF_PERICENTER":82.5346,"MEAN_ANOMALY":301.8007,"EPHEMERIS_TYPE":0,"CLASSIFICATION_TYPE":"U","NORAD_CAT_ID":48105,"ELEMENT_SET_NO":999,"REV_AT_EPOCH":579,"BSTAR":0.063164242,"MEAN_MOTION_DOT":0.0184398,"MEAN_MOTION_DDOT":0},{"OBJECT_NAME":"CERISE","OBJECT_ID":"1995-033B","EPOCH":"2026-03-09T23:11:27.589056","MEAN_MOTION":15.32047731,"ECCENTRICITY":0.00057118,"INCLINATION":98.325,"RA_OF_ASC_NODE":273.5192,"ARG_OF_PERICENTER":211.8754,"MEAN_ANOMALY":148.214,"EPHEMERIS_TYPE":0,"CLASSIFICATION_TYPE":"U","NORAD_CAT_ID":23606,"ELEMENT_SET_NO":999,"REV_AT_EPOCH":66468,"BSTAR":0.00062940675,"MEAN_MOTION_DOT":0.00019422,"MEAN_MOTION_DDOT":0}]
